{
  "type": "FeatureCollection",
  "features": [
    {
      "type": "Feature",
      "properties": {
        "norad_id": 36744,
        "name": "COMS 1",
        "group": "weather",
        "lat": -0.046151827932618135,
        "lon": -101.63816655645398,
        "alt_km": 35781.98862634198,
        "timestamp": "2025-12-04T03:47:54.197275+00:00",
        "meta_object_name": "COMS 1",
        "meta_object_id": "2010-032A",
        "meta_epoch": "2025-12-03T17:35:32.728416",
        "meta_mean_motion": 1.00269913,
        "meta_eccentricity": 0.0001111,
        "meta_inclination": 4.318,
        "meta_ra_of_asc_node": 78.097,
        "meta_arg_of_pericenter": 184.7227,
        "meta_mean_anomaly": 202.0533,
        "meta_ephemeris_type": 0,
        "meta_classification_type": "U",
        "meta_norad_cat_id": 36744,
        "meta_element_set_no": 999,
        "meta_rev_at_epoch": 4913,
        "meta_bstar": 0,
        "meta_mean_motion_dot": -3.29e-06,
        "meta_mean_motion_ddot": 0,
        "tle_line1": "1 36744U 10032A   25337.73301769 -.00000329  00000+0  00000+0 0  9999",
        "tle_line2": "2 36744   4.3180  78.0970 0001111 184.7227 202.0533  1.00269913 49131"
      },
      "geometry": {
        "type": "Point",
        "coordinates": [
          -101.63816655645398,
          -0.046151827932618135
        ]
      }
    },
    {
      "type": "Feature",
      "properties": {
        "norad_id": 37214,
        "name": "FENGYUN 3B",
        "group": "weather",
        "lat": -80.90098540702384,
        "lon": 99.4459359151354,
        "alt_km": 856.0255439357561,
        "timestamp": "2025-12-04T03:47:54.197286+00:00",
        "meta_object_name": "FENGYUN 3B",
        "meta_object_id": "2010-059A",
        "meta_epoch": "2025-12-03T11:44:50.576064",
        "meta_mean_motion": 14.14785545,
        "meta_eccentricity": 0.0022444,
        "meta_inclination": 98.9921,
        "meta_ra_of_asc_node": 17.4017,
        "meta_arg_of_pericenter": 23.8286,
        "meta_mean_anomaly": 83.3589,
        "meta_ephemeris_type": 0,
        "meta_classification_type": "U",
        "meta_norad_cat_id": 37214,
        "meta_element_set_no": 999,
        "meta_rev_at_epoch": 77975,
        "meta_bstar": 0.00010265,
        "meta_mean_motion_dot": 1.53e-06,
        "meta_mean_motion_ddot": 0,
        "tle_line1": "1 37214U 10059A   25337.48947426  .00000153  00000+0  10265-3 0  9991",
        "tle_line2": "2 37214  98.9921  17.4017 0022444  23.8286  83.3589 14.14785545779757"
      },
      "geometry": {
        "type": "Point",
        "coordinates": [
          99.4459359151354,
          -80.90098540702384
        ]
      }
    },
    {
      "type": "Feature",
      "properties": {
        "norad_id": 37849,
        "name": "SUOMI NPP",
        "group": "weather",
        "lat": -32.87273638525315,
        "lon": -78.693069063915,
        "alt_km": 834.4230189392892,
        "timestamp": "2025-12-04T03:47:54.197298+00:00",
        "meta_object_name": "SUOMI NPP",
        "meta_object_id": "2011-061A",
        "meta_epoch": "2025-12-03T11:02:17.850912",
        "meta_mean_motion": 14.19509901,
        "meta_eccentricity": 0.0001899,
        "meta_inclination": 98.7759,
        "meta_ra_of_asc_node": 274.8857,
        "meta_arg_of_pericenter": 136.8156,
        "meta_mean_anomaly": 223.3169,
        "meta_ephemeris_type": 0,
        "meta_classification_type": "U",
        "meta_norad_cat_id": 37849,
        "meta_element_set_no": 999,
        "meta_rev_at_epoch": 73067,
        "meta_bstar": 9.5433e-05,
        "meta_mean_motion_dot": 1.57e-06,
        "meta_mean_motion_ddot": 0,
        "tle_line1": "1 37849U 11061A   25337.45992883  .00000157  00000+0  95433-4 0  9998",
        "tle_line2": "2 37849  98.7759 274.8857 0001899 136.8156 223.3169 14.19509901730674"
      },
      "geometry": {
        "type": "Point",
        "coordinates": [
          -78.693069063915,
          -32.87273638525315
        ]
      }
    },
    {
      "type": "Feature",
      "properties": {
        "norad_id": 38552,
        "name": "METEOSAT-10 (MSG-3)",
        "group": "weather",
        "lat": 3.9239030405954094,
        "lon": 130.24518493402263,
        "alt_km": 35788.14590127207,
        "timestamp": "2025-12-04T03:47:54.197311+00:00",
        "meta_object_name": "METEOSAT-10 (MSG-3)",
        "meta_object_id": "2012-035B",
        "meta_epoch": "2025-12-03T01:46:14.361312",
        "meta_mean_motion": 1.00272334,
        "meta_eccentricity": 7.5e-05,
        "meta_inclination": 4.2044,
        "meta_ra_of_asc_node": 61.7366,
        "meta_arg_of_pericenter": 219.9554,
        "meta_mean_anomaly": 177.1386,
        "meta_ephemeris_type": 0,
        "meta_classification_type": "U",
        "meta_norad_cat_id": 38552,
        "meta_element_set_no": 999,
        "meta_rev_at_epoch": 4889,
        "meta_bstar": 0,
        "meta_mean_motion_dot": 1.1e-07,
        "meta_mean_motion_ddot": 0,
        "tle_line1": "1 38552U 12035B   25337.07377733  .00000011  00000+0  00000+0 0  9991",
        "tle_line2": "2 38552   4.2044  61.7366 0000750 219.9554 177.1386  1.00272334 48899"
      },
      "geometry": {
        "type": "Point",
        "coordinates": [
          130.24518493402263,
          3.9239030405954094
        ]
      }
    },
    {
      "type": "Feature",
      "properties": {
        "norad_id": 38771,
        "name": "METOP-B",
        "group": "weather",
        "lat": 58.20350633561804,
        "lon": -137.47042062270313,
        "alt_km": 813.6396801277469,
        "timestamp": "2025-12-04T03:47:54.197322+00:00",
        "meta_object_name": "METOP-B",
        "meta_object_id": "2012-049A",
        "meta_epoch": "2025-12-03T10:20:18.292128",
        "meta_mean_motion": 14.21402737,
        "meta_eccentricity": 0.0002494,
        "meta_inclination": 98.6813,
        "meta_ra_of_asc_node": 27.5468,
        "meta_arg_of_pericenter": 165.2397,
        "meta_mean_anomaly": 194.8854,
        "meta_ephemeris_type": 0,
        "meta_classification_type": "U",
        "meta_norad_cat_id": 38771,
        "meta_element_set_no": 999,
        "meta_rev_at_epoch": 68545,
        "meta_bstar": 0.00012743,
        "meta_mean_motion_dot": 2.35e-06,
        "meta_mean_motion_ddot": 0,
        "tle_line1": "1 38771U 12049A   25337.43076727  .00000235  00000+0  12743-3 0  9997",
        "tle_line2": "2 38771  98.6813  27.5468 0002494 165.2397 194.8854 14.21402737685455"
      },
      "geometry": {
        "type": "Point",
        "coordinates": [
          -137.47042062270313,
          58.20350633561804
        ]
      }
    },
    {
      "type": "Feature",
      "properties": {
        "norad_id": 39216,
        "name": "INSAT-3D",
        "group": "weather",
        "lat": 0.10837538911314117,
        "lon": -100.27644887848562,
        "alt_km": 35778.61268624079,
        "timestamp": "2025-12-04T03:47:54.197335+00:00",
        "meta_object_name": "INSAT-3D",
        "meta_object_id": "2013-038B",
        "meta_epoch": "2025-12-03T10:56:51.856800",
        "meta_mean_motion": 1.00273796,
        "meta_eccentricity": 0.0001753,
        "meta_inclination": 1.4189,
        "meta_ra_of_asc_node": 85.096,
        "meta_arg_of_pericenter": 154.7686,
        "meta_mean_anomaly": 126.4141,
        "meta_ephemeris_type": 0,
        "meta_classification_type": "U",
        "meta_norad_cat_id": 39216,
        "meta_element_set_no": 999,
        "meta_rev_at_epoch": 4511,
        "meta_bstar": 0,
        "meta_mean_motion_dot": -3.21e-06,
        "meta_mean_motion_ddot": 0,
        "tle_line1": "1 39216U 13038B   25337.45615575 -.00000321  00000+0  00000+0 0  9999",
        "tle_line2": "2 39216   1.4189  85.0960 0001753 154.7686 126.4141  1.00273796 45112"
      },
      "geometry": {
        "type": "Point",
        "coordinates": [
          -100.27644887848562,
          0.10837538911314117
        ]
      }
    },
    {
      "type": "Feature",
      "properties": {
        "norad_id": 39260,
        "name": "FENGYUN 3C",
        "group": "weather",
        "lat": -4.021195458022446,
        "lon": 135.65642889122327,
        "alt_km": 835.4947900695024,
        "timestamp": "2025-12-04T03:47:54.197346+00:00",
        "meta_object_name": "FENGYUN 3C",
        "meta_object_id": "2013-052A",
        "meta_epoch": "2025-12-03T20:08:46.620672",
        "meta_mean_motion": 14.15691845,
        "meta_eccentricity": 0.0013847,
        "meta_inclination": 98.4754,
        "meta_ra_of_asc_node": 315.9538,
        "meta_arg_of_pericenter": 222.8001,
        "meta_mean_anomaly": 137.2097,
        "meta_ephemeris_type": 0,
        "meta_classification_type": "U",
        "meta_norad_cat_id": 39260,
        "meta_element_set_no": 999,
        "meta_rev_at_epoch": 63092,
        "meta_bstar": 0.00012286,
        "meta_mean_motion_dot": 2e-06,
        "meta_mean_motion_ddot": 0,
        "tle_line1": "1 39260U 13052A   25337.83942848  .00000200  00000+0  12286-3 0  9990",
        "tle_line2": "2 39260  98.4754 315.9538 0013847 222.8001 137.2097 14.15691845630924"
      },
      "geometry": {
        "type": "Point",
        "coordinates": [
          135.65642889122327,
          -4.021195458022446
        ]
      }
    }
  ]
}